STARLINK-32235          
1 60739U 24152V   26068.72452492 -.00004827  00000+0 -15117-3 0  9996
2 60739  53.1586 268.4462 0001079  89.0280 271.0845 15.30156512 86809
2025-313BC              
1 67298U 25313BC  26068.18968176  .00075331  00000+0  26410-2 0  9997
2 67298  97.3985 144.8110 0008478 328.9209  31.1528 15.29126358  7890
